{"type":"FeatureCollection","features":[{"type":"Feature","geometry":{"type":"MultiPolygon","coordinates":[[[[34.0029,26.7316],[34.0036,26.7082],[33.9551,26.79],[33.9756,26.79],[34.0029,26.7316]]],[[[34.0513,27.4486],[33.9564,27.5044],[33.9338,27.4947],[33.9136,27.5237],[33.9641,27.5341],[34.0285,27.502],[34.0513,27.4486]]],[[[34.6618,27.9302],[34.6818,27.9587],[34.7319,27.9571],[34.7322,27.9189],[34.681,27.9152],[34.6618,27.9302]]],[[[34.5822,27.9179],[34.5181,27.9304],[34.4963,27.9551],[34.4895,27.996],[34.5173,28.0165],[34.5348,28.0082],[34.5442,27.996],[34.5032,27.9756],[34.5706,27.9741],[34.6205,27.9278],[34.5822,27.9179]]],[[[34.4804,30.6512],[34.5044,30.5303],[34.5362,30.4822],[34.5269,30.4096],[34.5995,30.3445],[34.7332,30.0126],[34.7414,29.9402],[34.8244,29.7417],[34.8553,29.5457],[34.8867,29.4901],[34.7366,29.3113],[34.7453,29.2913],[34.729,29.1989],[34.695,29.1645],[34.6746,29.1065],[34.6857,28.9887],[34.6403,28.9488],[34.6471,28.8629],[34.6205,28.8459],[34.6335,28.7707],[34.6245,28.736],[34.5106,28.538],[34.5236,28.5073],[34.469,28.4554],[34.4102,28.32],[34.4129,28.2331],[34.4553,28.1749],[34.4268,28.0815],[34.444,28.0535],[34.4349,27.9756],[34.4007,27.9687],[34.3709,27.9237],[34.3313,27.9141],[34.321,27.8613],[34.2795,27.8583],[34.2591,27.8017],[34.2141,27.7915],[34.2212,27.7698],[34.2573,27.7695],[34.2635,27.736],[34.2498,27.7428],[34.2498,27.7286],[34.1898,27.7868],[34.0545,27.8145],[33.9876,27.8867],[33.904,27.9418],[33.8794,27.9346],[33.8656,27.9613],[33.7634,28.024],[33.7639,28.049],[33.716,28.0753],[33.6746,28.1605],[33.6348,28.1813],[33.6182,28.2333],[33.5647,28.2971],[33.4339,28.3664],[33.3692,28.4479],[33.2562,28.5441],[33.2698,28.5441],[33.2629,28.5771],[33.2376,28.5661],[33.2562,28.5516],[33.2394,28.5566],[33.1948,28.6751],[33.2283,28.7639],[33.1746,28.837],[33.1707,29.0031],[33.0786,29.0649],[33.0612,29.1014],[32.9579,29.2021],[32.8856,29.2431],[32.8683,29.2974],[32.8394,29.3162],[32.8174,29.3598],[32.8172,29.414],[32.7415,29.456],[32.7347,29.4838],[32.7285,29.456],[32.715,29.456],[32.7241,29.5395],[32.7124,29.5805],[32.6808,29.5999],[32.6907,29.7336],[32.6484,29.7946],[32.6045,29.8242],[32.6255,29.8463],[32.6253,29.8743],[32.5715,29.9289],[32.5855,29.9525],[32.5616,29.9764],[32.5778,29.9835],[32.5778,30.0114],[32.5586,29.9871],[32.5592,29.9711],[32.33,30.3],[32.28,30.59],[32.3038,31.2793],[32.4014,31.2171],[32.5358,31.0866],[32.6016,31.061],[32.762,31.0812],[32.9273,31.1554],[32.8396,31.1012],[32.6665,31.0523],[32.715,31.0523],[32.7007,31.0387],[32.7695,31.0456],[32.8931,31.1008],[32.9172,31.0828],[32.9409,31.0933],[32.9136,31.1008],[32.9271,31.1118],[32.9688,31.0865],[32.9751,31.066],[32.9613,31.066],[33.0099,31.0563],[33.0234,31.0734],[33.0091,31.0865],[33.0575,31.1008],[33.0643,31.1349],[33.0303,31.1008],[32.9544,31.1069],[32.9846,31.1095],[33.0303,31.1622],[33.1094,31.1964],[33.1265,31.1964],[33.0986,31.1833],[33.1577,31.1179],[33.119,31.1069],[33.1447,31.0779],[33.1333,31.0456],[33.2214,31.0598],[33.1948,31.0734],[33.2625,31.1008],[33.304,31.0797],[33.3032,31.0998],[33.3176,31.1008],[33.2772,31.1069],[33.3865,31.1144],[33.3777,31.1326],[33.4064,31.1373],[33.4064,31.1554],[33.5921,31.1144],[33.8543,31.1635],[34.047,31.2292],[34.2003,31.3143],[34.4804,30.6512]]],[[[32.5641,29.9426],[32.5602,29.9684],[32.5705,29.9558],[32.5641,29.9426]]],[[[32.9831,31.0899],[32.9893,31.0734],[32.9697,31.0866],[32.9831,31.0899]]],[[[33.2987,31.2128],[33.2698,31.2168],[33.3011,31.2159],[33.406,31.1845],[33.4759,31.1418],[33.2987,31.2128]]],[[[33.1026,31.2268],[32.9347,31.1479],[33.1047,31.2403],[33.2625,31.2236],[33.1026,31.2268]]]]},"properties":{"name":"Sinai (Israeli-occupied)","kind":"zone","style":"israeli-occupied","validFrom":"1967-06-10","validTo":"1982-04-24","note":"Sinai Peninsula occupied by Israel from June 1967 (to the east bank of the Suez Canal; an Israeli bridgehead west of the canal in Oct 1973 - Mar 1974 is not drawn). Israel pulled back from the canal under the 1974 and 1975 disengagement agreements and returned Sinai in stages under the 1979 treaty (El Arish May 1979, two-thirds by Jan 1980, the rest by 25 Apr 1982; Taba in 1989); those stages are not drawn.","source":"Natural Earth 1:10m admin-0 (public domain)"}},{"type":"Feature","geometry":{"type":"Polygon","coordinates":[[[35.8099,33.36],[35.7638,33.3344],[35.8021,33.3125],[35.7686,33.2727],[35.8036,33.2485],[35.8077,33.2017],[35.8302,33.19],[35.8334,33.1611],[35.8115,33.1268],[35.8115,33.1119],[35.8489,33.0987],[35.8458,33.0854],[35.859,32.9902],[35.8881,32.9449],[35.8497,32.8958],[35.8381,32.866],[35.8419,32.8536],[35.8342,32.8279],[35.7576,32.7443],[35.6852,32.7112],[35.636,32.6791],[35.6123,32.6815],[35.595,32.7074],[35.6344,32.7522],[35.6354,32.7694],[35.6414,32.7721],[35.6354,32.7937],[35.6414,32.8648],[35.6382,32.8747],[35.6023,32.9086],[35.6148,32.9212],[35.6198,32.9839],[35.5877,33.0179],[35.6213,33.0503],[35.6344,33.052],[35.6369,33.0772],[35.6722,33.15],[35.6613,33.2129],[35.6602,33.236],[35.6662,33.2469],[35.6345,33.2487],[35.608,33.2392],[35.6046,33.2444],[35.6181,33.2561],[35.6201,33.2695],[35.6521,33.2767],[35.6985,33.3227],[35.7437,33.3312],[35.7694,33.3426],[35.8057,33.3913],[35.8211,33.4067],[35.8099,33.36]]]},"properties":{"name":"Golan Heights (Israeli-occupied)","kind":"zone","style":"israeli-occupied","validFrom":"1967-06-10","validTo":"1981-12-13","note":"Golan Heights captured from Syria on 9-10 June 1967 and held under military administration until the Golan Heights Law of 14 Dec 1981; drawn at the post-1974 extent (Quneitra and the Oct 1973 salient returned in June 1974). Includes the Shebaa Farms, claimed by Lebanon.","source":"Natural Earth 1:10m admin-0 disputed areas (public domain)"}},{"type":"Feature","geometry":{"type":"Polygon","coordinates":[[[32.5638,29.9445],[32.554,29.9621],[32.5134,29.9616],[32.4769,29.9322],[32.4729,29.882],[32.5095,29.8668],[32.3928,29.7344],[32.3639,29.6882],[32.3377,29.5925],[32.3877,29.5256],[32.5286,29.4237],[32.5915,29.3495],[32.6323,29.2431],[32.6589,29.1108],[32.6597,29.0891],[32.6247,29.0482],[32.6255,28.9727],[32.6734,28.9215],[32.6808,28.8806],[32.7492,28.8048],[32.8069,28.7781],[32.8689,28.5789],[33.0029,28.4895],[33.0432,28.4008],[33.1067,28.3471],[33.1265,28.2875],[33.2122,28.1899],[33.242,28.1749],[33.2494,28.1429],[33.3381,28.0854],[33.3436,28.0506],[33.4417,28.0165],[33.5125,27.9591],[33.5544,27.8965],[33.5921,27.7912],[33.4889,27.8459],[33.4735,27.8232],[33.5227,27.7519],[33.5579,27.7599],[33.5368,27.7081],[33.575,27.6814],[33.5921,27.6466],[33.5579,27.6814],[33.5579,27.6597],[33.5442,27.6792],[33.5265,27.6776],[33.4963,27.6466],[33.5647,27.5715],[33.5579,27.5368],[33.633,27.4958],[33.6917,27.3419],[33.8384,27.2426],[33.8384,27.1942],[33.8247,27.1805],[33.8368,27.1208],[33.9014,27.0587],[33.9009,27.0142],[33.9517,26.931],[33.9961,26.8966],[33.9961,26.8379],[33.9596,26.8498],[33.9483,26.831],[33.9519,26.7434],[33.9321,26.6826],[33.9414,26.6535],[34.014,26.6116],[34.3387,26.0018],[34.5466,25.725],[34.6335,25.5694],[34.6819,25.4287],[34.7433,25.3513],[34.8069,25.2116],[34.9391,25.0034],[34.9537,24.9441],[34.9898,24.905],[35.0022,24.8156],[35.0635,24.7641],[35.1095,24.6438],[35.1603,24.5746],[35.1446,24.5002],[35.1857,24.4857],[35.2355,24.4001],[35.3919,24.2828],[35.4286,24.186],[35.4938,24.1089],[35.5105,24.1112],[35.4938,24.139],[35.5039,24.1405],[35.5884,24.0758],[35.6053,24.0188],[35.7386,23.9833],[35.7925,23.9023],[35.7858,23.893],[35.7504,23.9324],[35.6845,23.9109],[35.5985,23.9294],[35.5139,23.9771],[35.4839,23.9178],[35.4907,23.87],[35.4748,23.7979],[35.4832,23.7725],[35.5101,23.7564],[35.4894,23.497],[35.5475,23.394],[35.5747,23.2126],[35.6211,23.1393],[35.6546,23.0738],[35.6751,22.9666],[35.7371,22.884],[35.7637,22.8704],[35.7234,22.9319],[35.7557,22.9223],[35.7849,22.8332],[35.886,22.7357],[35.9695,22.698],[36.1206,22.6757],[36.2261,22.6354],[36.2905,22.5682],[36.3134,22.4916],[36.4281,22.426],[36.4398,22.3564],[36.5628,22.2967],[36.7137,22.1691],[36.7476,22.161],[36.7568,22.1769],[36.7822,22.1645],[36.8182,22.1088],[36.8954,22.0661],[36.8984,22.0175],[36.8836,21.9957],[31.4355,21.9954],[31.4918,22.1732],[31.4609,22.2155],[31.4233,22.227],[31.3595,22.1881],[31.2484,21.9944],[24.9812,21.9954],[24.9812,29.1814],[24.9566,29.2927],[24.8638,29.5029],[24.8707,29.6383],[24.8049,29.7548],[24.7982,29.7964],[24.8116,29.8909],[24.6883,30.1442],[24.6887,30.1828],[24.7629,30.3171],[24.9077,30.4987],[24.9949,30.7851],[24.8826,31.0391],[24.8486,31.312],[24.8613,31.3804],[25.0237,31.4944],[25.0604,31.5794],[25.1509,31.6565],[25.1618,31.5836],[25.1909,31.5315],[25.3021,31.5065],[25.4019,31.5032],[25.8241,31.6149],[25.9668,31.6166],[26.3622,31.5219],[26.7532,31.4775],[26.8657,31.4368],[26.9655,31.4497],[27.0544,31.4086],[27.2262,31.3677],[27.2461,31.3813],[27.3206,31.381],[27.3423,31.3682],[27.3936,31.2547],[27.4463,31.2232],[27.5877,31.1931],[27.6099,31.2032],[27.6603,31.1802],[27.8529,31.2403],[27.8971,31.1144],[27.9269,31.099],[28.1546,31.0933],[28.2039,31.0705],[28.3184,31.0598],[28.4243,31.0834],[28.4785,31.0518],[28.5276,31.0501],[28.812,30.9568],[28.8357,30.9108],[29.0281,30.8271],[29.2189,30.838],[29.5033,30.9567],[29.766,31.1216],[29.7815,31.1479],[29.8384,31.1541],[29.8846,31.1895],[29.8635,31.1964],[29.877,31.2136],[29.8982,31.2032],[30.0696,31.3335],[30.0667,31.3049],[30.0949,31.2856],[30.1726,31.2714],[30.1401,31.2373],[30.1652,31.2168],[30.2068,31.2379],[30.2017,31.2265],[30.2205,31.2202],[30.2614,31.2441],[30.2688,31.2653],[30.2887,31.2379],[30.303,31.2714],[30.2876,31.2782],[30.2409,31.2653],[30.2546,31.2783],[30.1795,31.2783],[30.2517,31.3034],[30.3128,31.3506],[30.3484,31.4213],[30.3439,31.498],[30.3646,31.4601],[30.3986,31.4433],[30.3706,31.4616],[30.3622,31.5087],[30.4564,31.4627],[30.5358,31.4639],[30.9739,31.5867],[30.6281,31.4343],[30.5579,31.4222],[30.5427,31.4024],[30.6267,31.3887],[30.6751,31.4216],[30.7344,31.3881],[30.7562,31.423],[30.7985,31.4465],[30.8924,31.4191],[30.9397,31.4433],[30.9397,31.457],[30.9807,31.4365],[31.0291,31.5185],[31.0713,31.5173],[31.1192,31.4931],[31.1292,31.5045],[31.1111,31.5123],[31.1304,31.517],[31.1111,31.5397],[31.0232,31.583],[30.978,31.5843],[31.0974,31.6079],[31.221,31.5799],[31.5568,31.4433],[31.7483,31.4816],[31.8379,31.5253],[31.8744,31.5356],[31.9129,31.5349],[31.9448,31.5209],[32.0249,31.4001],[32.1996,31.2951],[31.995,31.395],[31.9683,31.4365],[31.9935,31.4378],[31.918,31.524],[31.8895,31.5321],[31.8789,31.5185],[31.8652,31.5253],[31.8652,31.5123],[31.8509,31.5185],[31.8447,31.498],[31.8652,31.498],[31.8789,31.4291],[31.8416,31.4645],[31.8242,31.4433],[31.8584,31.4433],[31.8548,31.4232],[31.8789,31.4161],[31.8304,31.4086],[31.8447,31.395],[31.8279,31.3684],[31.8584,31.354],[31.7972,31.3595],[31.7959,31.311],[31.7669,31.2847],[31.8206,31.2783],[31.8342,31.2516],[31.8858,31.2236],[31.9063,31.2516],[31.9063,31.2236],[31.8926,31.2168],[31.9063,31.2168],[31.8994,31.2032],[31.9266,31.2106],[31.9264,31.187],[31.9866,31.2303],[32.0093,31.2106],[32.0371,31.2168],[32.0369,31.1503],[32.0161,31.1281],[32.0501,31.1418],[32.0701,31.1144],[32.044,31.0865],[32.0838,31.0844],[32.0838,31.066],[32.1198,31.0529],[32.1321,31.066],[32.1074,31.0728],[32.098,31.0933],[32.1463,31.0797],[32.1384,31.0933],[32.1594,31.0933],[32.1528,31.1066],[32.1663,31.1144],[32.1799,31.1069],[32.1838,31.1249],[32.2185,31.1052],[32.2722,31.1189],[32.2805,31.155],[32.2625,31.1696],[32.2898,31.1696],[32.2948,31.1994],[32.2705,31.2576],[32.283,31.2653],[32.2141,31.2783],[32.207,31.2951],[32.3038,31.2793],[32.28,30.59],[32.33,30.3],[32.5592,29.9711],[32.5638,29.9445]],[[35.4292,22.9783],[35.2121,22.7863],[35.3458,22.9016],[35.6211,23.1393],[35.4292,22.9783]],[[34.7776,22.4998],[34.8282,22.6069],[34.862,22.6802],[34.7776,22.4998]],[[34.4228,22.2492],[34.1475,22.1919],[34.3211,22.2263],[34.6821,22.2979],[34.4228,22.2492]]]},"properties":{"name":"Egypt","kind":"zone","style":"other-state","validFrom":"1967-06-10","validTo":"1982-04-24","note":"Egypt west of the Suez Canal while Sinai was under Israeli occupation (June 1967 - Apr 1982); the staged Israeli withdrawals from 1974 are not drawn.","source":"Natural Earth 1:10m admin-0 (public domain)"}},{"type":"Feature","geometry":{"type":"LineString","coordinates":[[34.8867,29.4901],[34.8553,29.5457],[34.8244,29.7417],[34.7414,29.9402],[34.7332,30.0126],[34.5995,30.3445],[34.5269,30.4096],[34.5362,30.4822],[34.5044,30.5303],[34.4804,30.6512],[34.2484,31.2114]]},"properties":{"name":"Israel-Egypt border (1979 treaty)","kind":"line","style":"international","validFrom":"1979-03-26","validTo":"1982-04-24","note":"International boundary recognised by the Egypt-Israel peace treaty of 26 Mar 1979 (the 1906 line from Rafah to Taba), while Sinai east of it was still being handed back in stages.","source":"derived from Natural Earth 1:10m polygon adjacency (public domain)"}},{"type":"Feature","geometry":{"type":"Polygon","coordinates":[[[35.1065,33.095],[35.1004,33.0957],[35.0996,33.1013],[35.1058,33.1125],[35.1255,33.1325],[35.1476,33.1403],[35.1678,33.1702],[35.1618,33.1769],[35.1711,33.1766],[35.1747,33.1702],[35.2048,33.2248],[35.2092,33.2546],[35.1883,33.28],[35.2097,33.2934],[35.2248,33.312],[35.2369,33.34],[35.26,33.34],[35.48,33.37],[35.54,33.35],[35.57,33.4],[35.6,33.44],[35.66,33.45],[35.834,33.4132],[35.8211,33.4067],[35.8057,33.3913],[35.7858,33.3579],[35.7694,33.3426],[35.7437,33.3312],[35.6985,33.3227],[35.6605,33.2893],[35.6521,33.2767],[35.6311,33.2746],[35.6201,33.2695],[35.6181,33.2561],[35.6046,33.2444],[35.6039,33.2401],[35.585,33.2522],[35.5612,33.2821],[35.5495,33.281],[35.5278,33.2443],[35.52,33.2222],[35.5177,33.1729],[35.5123,33.1474],[35.4851,33.1026],[35.4801,33.0874],[35.4494,33.0852],[35.4016,33.0679],[35.3452,33.0556],[35.3319,33.0572],[35.3058,33.0894],[35.2837,33.1012],[35.2715,33.1012],[35.2345,33.0909],[35.2072,33.0948],[35.1853,33.084],[35.1052,33.0906],[35.1065,33.095]]]},"properties":{"name":"Operation Litani area (Israeli-occupied)","kind":"zone","style":"israeli-occupied","validFrom":"1978-03-14","validTo":"1978-06-13","note":"South Lebanon up to the Litani river occupied by Israel in Operation Litani (14-21 Mar 1978); the Tyre pocket was not entered. Withdrawal in stages to 13 June 1978, when the border strip was handed to Major Haddad's militia. Hand-digitised Litani line, simplified.","approximate":true,"source":"hand-digitised from UN Secretary-General reports on UNIFIL (1978) and reference maps; Lebanese border edges from Natural Earth"}},{"type":"Feature","geometry":{"type":"MultiPolygon","coordinates":[[[[35.2092,33.2546],[35.1883,33.28],[35.2097,33.2934],[35.2248,33.312],[35.2369,33.34],[35.26,33.34],[35.48,33.37],[35.5143,33.3586],[35.5,33.35],[35.48,33.3],[35.45,33.24],[35.42,33.2],[35.37,33.18],[35.3,33.17],[35.22,33.17],[35.1769,33.1743],[35.2048,33.2248],[35.2092,33.2546]]],[[[35.6,33.44],[35.6462,33.4477],[35.6,33.42],[35.5654,33.3923],[35.6,33.44]]]]},"properties":{"name":"UNIFIL area of operations","kind":"zone","style":"un-buffer","validFrom":"1978-03-23","validTo":"1985-06-09","note":"UN Interim Force in Lebanon (UNSC 425/426, 19 Mar 1978; first troops 23 Mar 1978) between the Litani and the Israeli-backed Haddad enclave along the border, which is excluded; the 1978 deployment also excluded the Tyre pocket. Overrun by the June 1982 invasion; UNIFIL stayed in place. Simplified (the real area was a patchwork).","approximate":true,"source":"hand-digitised from UN cartographic UNIFIL deployment maps; Litani and enclave edges approximate"}},{"type":"Feature","geometry":{"type":"Polygon","coordinates":[[[35.1065,33.095],[35.1004,33.0957],[35.0996,33.1013],[35.1058,33.1125],[35.1255,33.1325],[35.1476,33.1403],[35.1678,33.1702],[35.1618,33.1769],[35.1711,33.1766],[35.1747,33.1702],[35.2048,33.2248],[35.2092,33.2546],[35.1883,33.28],[35.2097,33.2934],[35.2248,33.312],[35.2437,33.3557],[35.2505,33.4097],[35.2751,33.445],[35.271,33.4575],[35.323,33.4909],[35.3491,33.5139],[35.3625,33.5563],[35.3891,33.6168],[35.45,33.61],[35.55,33.59],[35.63,33.58],[35.7,33.58],[35.78,33.55],[35.86,33.5],[35.9213,33.466],[35.8885,33.4404],[35.8211,33.4067],[35.8057,33.3913],[35.7858,33.3579],[35.7694,33.3426],[35.7437,33.3312],[35.6985,33.3227],[35.6605,33.2893],[35.6521,33.2767],[35.6311,33.2746],[35.6201,33.2695],[35.6181,33.2561],[35.6046,33.2444],[35.6039,33.2401],[35.585,33.2522],[35.5612,33.2821],[35.5495,33.281],[35.5278,33.2443],[35.52,33.2222],[35.5177,33.1729],[35.5123,33.1474],[35.4851,33.1026],[35.4801,33.0874],[35.4494,33.0852],[35.4016,33.0679],[35.3452,33.0556],[35.3319,33.0572],[35.3058,33.0894],[35.2837,33.1012],[35.2715,33.1012],[35.2345,33.0909],[35.2072,33.0948],[35.1853,33.084],[35.1052,33.0906],[35.1065,33.095]]]},"properties":{"name":"1982 invasion zone, south Lebanon (Israeli-occupied)","kind":"zone","style":"israeli-occupied","validFrom":"1982-06-06","validTo":"1985-06-09","note":"Lebanon south of the Awali river held by Israel after the June 1982 invasion (Operation Peace for Galilee). Israeli forces also besieged West Beirut (June-Aug 1982) and held the Shouf until the pull-back to the Awali of 3-4 Sept 1983; they withdrew to the Litani/Nabatieh in Feb 1984 and to the \"security zone\" by 10 June 1985. Only the post-Sept-1983 Awali line is drawn; approximate.","approximate":true,"source":"hand-digitised from UN Secretary-General reports on UNIFIL (1982-85) and press maps of the Israeli deployment; Lebanese border edges from Natural Earth"}},{"type":"Feature","geometry":{"type":"Polygon","coordinates":[[[34.3159,31.2569],[34.3509,31.2893],[34.3538,31.3064],[34.3458,31.3577],[34.3673,31.3928],[34.556,31.5398],[34.4812,31.5831],[34.6096,31.7655],[34.6932,31.9265],[34.7119,31.9516],[34.7433,32.0399],[34.7433,32.0604],[34.757,32.0666],[34.8377,32.2807],[34.9421,32.7245],[34.9475,32.8142],[34.9556,32.8344],[34.9705,32.8414],[35.0034,32.8275],[35.0277,32.8266],[35.0628,32.8583],[35.0796,32.9058],[35.0778,32.9179],[35.0654,32.9231],[35.0785,32.9988],[35.0962,33.0504],[35.0921,33.0677],[35.1065,33.0808],[35.0996,33.0876],[35.1853,33.084],[35.2072,33.0948],[35.2345,33.0909],[35.2837,33.1012],[35.3058,33.0894],[35.3319,33.0572],[35.3452,33.0556],[35.4494,33.0852],[35.4801,33.0874],[35.5123,33.1474],[35.52,33.2222],[35.5495,33.281],[35.5612,33.2821],[35.585,33.2522],[35.6039,33.2401],[35.6345,33.2487],[35.6662,33.2469],[35.6602,33.236],[35.6613,33.2129],[35.6722,33.15],[35.6369,33.0772],[35.6344,33.052],[35.6213,33.0503],[35.5877,33.0179],[35.6198,32.9839],[35.6148,32.9212],[35.6023,32.9086],[35.6382,32.8747],[35.6414,32.8648],[35.6354,32.7937],[35.6414,32.7721],[35.6354,32.7694],[35.6344,32.7522],[35.595,32.7074],[35.6122,32.6815],[35.5605,32.6409],[35.5641,32.6255],[35.5725,32.6212],[35.5656,32.6075],[35.58,32.5604],[35.5744,32.5544],[35.5725,32.5604],[35.5656,32.5461],[35.5594,32.553],[35.5656,32.5256],[35.552,32.5256],[35.552,32.5188],[35.5614,32.5192],[35.58,32.4977],[35.5594,32.4704],[35.5725,32.4642],[35.5725,32.4567],[35.5594,32.4505],[35.5656,32.4437],[35.552,32.4362],[35.5594,32.4294],[35.552,32.4294],[35.5591,32.414],[35.5451,32.4096],[35.561,32.3847],[35.4069,32.4148],[35.4018,32.471],[35.3929,32.4945],[35.3631,32.5101],[35.2704,32.5105],[35.2086,32.5426],[35.1908,32.5417],[35.1517,32.5079],[35.0644,32.4631],[35.0447,32.4341],[35.0216,32.3446],[35.0007,32.3357],[34.9966,32.323],[34.9899,32.2785],[35.0094,32.2676],[35.0076,32.2444],[35.0003,32.232],[34.9614,32.2016],[34.9582,32.1865],[34.9869,32.124],[34.9842,32.0896],[35.0072,32.0208],[34.9968,32.0111],[34.9978,31.9788],[34.9867,31.9672],[35.0077,31.9449],[35.0054,31.9338],[35.0299,31.9244],[35.039,31.9086],[35.0343,31.8611],[34.9985,31.8538],[34.9774,31.8334],[35.0129,31.8293],[35.0275,31.8327],[35.056,31.8533],[35.0763,31.8542],[35.0881,31.8481],[35.0976,31.8313],[35.137,31.8143],[35.1739,31.8076],[35.1978,31.8099],[35.2238,31.8013],[35.2283,31.7576],[35.2226,31.7346],[35.2093,31.7471],[35.1992,31.7471],[35.1257,31.7331],[35.1142,31.7177],[35.0592,31.6768],[34.9736,31.6304],[34.9553,31.6119],[34.9373,31.582],[34.9268,31.4944],[34.8817,31.4299],[34.8672,31.3964],[34.8788,31.3628],[34.9009,31.3485],[34.9274,31.3449],[35.0402,31.3632],[35.1649,31.3623],[35.2233,31.381],[35.3323,31.4588],[35.3901,31.4871],[35.4585,31.4916],[35.4529,31.4008],[35.4165,31.3318],[35.4239,31.3246],[35.4223,31.303],[35.3957,31.2577],[35.4107,31.2046],[35.4362,31.1595],[35.4432,31.1322],[35.4385,31.1037],[35.3916,31.0239],[35.3853,30.9633],[35.3741,30.9451],[35.3349,30.9126],[35.3222,30.89],[35.3166,30.8228],[35.2795,30.7802],[35.2638,30.7198],[35.2053,30.6171],[35.14,30.4302],[35.14,30.4062],[35.1621,30.3614],[35.1418,30.314],[35.1252,30.2447],[35.1248,30.2161],[35.1453,30.1549],[35.1453,30.1234],[35.129,30.0897],[35.0863,30.034],[35.0541,29.9234],[35.049,29.8423],[35.0025,29.7331],[34.9898,29.652],[34.967,29.6081],[34.9513,29.5456],[34.9108,29.4899],[34.8867,29.4901],[34.8553,29.5457],[34.8482,29.5696],[34.8501,29.6388],[34.8244,29.7417],[34.7414,29.9402],[34.7332,30.0126],[34.5995,30.3445],[34.5269,30.4096],[34.5265,30.4387],[34.5362,30.4822],[34.5104,30.5133],[34.5022,30.5717],[34.4804,30.6512],[34.3295,30.9945],[34.2484,31.2114],[34.3159,31.2569]]]},"properties":{"name":"Israel","kind":"zone","style":"israel","validFrom":"1967-06-10","validTo":"2026-12-31","note":"Israel within the 1949 armistice lines (Green Line), including the Latrun no-man's land held since 1967. Excludes East Jerusalem and the Golan, drawn as separate annexed zones.","source":"Natural Earth 1:10m admin-0 (public domain)"}},{"type":"Feature","geometry":{"type":"Polygon","coordinates":[[[34.9978,31.9788],[34.9968,32.0111],[35.0072,32.0208],[34.9842,32.0896],[34.9869,32.124],[34.9582,32.1865],[34.9614,32.2016],[35.0003,32.232],[35.0076,32.2444],[35.0094,32.2676],[34.9899,32.2785],[34.9966,32.323],[35.0007,32.3357],[35.0216,32.3446],[35.0447,32.4341],[35.0644,32.4631],[35.1517,32.5079],[35.1908,32.5417],[35.2086,32.5426],[35.2704,32.5105],[35.3631,32.5101],[35.3929,32.4945],[35.4018,32.471],[35.4069,32.4148],[35.561,32.3847],[35.5656,32.3679],[35.5594,32.3679],[35.5594,32.3748],[35.552,32.3748],[35.552,32.3679],[35.5573,32.3582],[35.5565,32.3282],[35.5656,32.3134],[35.5609,32.2826],[35.5725,32.2519],[35.5594,32.2376],[35.5725,32.2376],[35.5552,32.1744],[35.5594,32.1551],[35.5467,32.147],[35.552,32.1352],[35.5352,32.1108],[35.5346,32.0992],[35.5451,32.0868],[35.5283,32.0751],[35.5228,32.0578],[35.5247,32.0117],[35.5459,31.9446],[35.5451,31.9366],[35.5275,31.9274],[35.5247,31.9192],[35.5491,31.8392],[35.5383,31.8193],[35.5594,31.7653],[35.5276,31.7351],[35.4801,31.6411],[35.4642,31.5686],[35.4587,31.4916],[35.3901,31.4871],[35.3323,31.4588],[35.2233,31.381],[35.1649,31.3623],[35.0402,31.3632],[34.9274,31.3449],[34.9009,31.3485],[34.8788,31.3628],[34.8672,31.3964],[34.8817,31.4299],[34.9268,31.4944],[34.9373,31.582],[34.9736,31.6304],[35.0592,31.6768],[35.1142,31.7177],[35.1257,31.7331],[35.149,31.7373],[35.1667,31.7321],[35.1794,31.7201],[35.2053,31.7232],[35.238,31.7093],[35.2628,31.7486],[35.2527,31.7697],[35.2629,31.7897],[35.2559,31.8122],[35.2649,31.8263],[35.2516,31.8313],[35.2572,31.8386],[35.25,31.8444],[35.2334,31.8426],[35.222,31.8792],[35.2053,31.8773],[35.2158,31.8201],[35.1836,31.8251],[35.1862,31.8087],[35.137,31.8143],[35.1214,31.8248],[35.1125,31.824],[35.0763,31.8542],[35.056,31.8533],[35.0275,31.8327],[35.0129,31.8293],[34.9774,31.8334],[34.9985,31.8538],[35.0343,31.8611],[35.039,31.9086],[35.0299,31.9244],[35.0054,31.9338],[35.0077,31.9449],[34.9867,31.9672],[34.9978,31.9788]]]},"properties":{"name":"West Bank (Israeli-occupied)","kind":"zone","style":"israeli-occupied","validFrom":"1967-06-10","validTo":"1994-05-17","note":"West Bank under Israeli military occupation since June 1967 (East Jerusalem excluded, see annexed zone).","source":"Natural Earth 1:10m admin-0 (public domain)"}},{"type":"Feature","geometry":{"type":"Polygon","coordinates":[[[35.2245,31.7572],[35.2283,31.7576],[35.2295,31.7713],[35.2238,31.8013],[35.1978,31.8099],[35.1862,31.8087],[35.1822,31.8199],[35.1836,31.8251],[35.1899,31.8267],[35.2158,31.8201],[35.2161,31.8391],[35.2048,31.8711],[35.2053,31.8773],[35.2121,31.8815],[35.222,31.8792],[35.2266,31.8672],[35.2275,31.8503],[35.2334,31.8426],[35.25,31.8444],[35.2572,31.8386],[35.2516,31.8313],[35.2649,31.8263],[35.2559,31.8122],[35.2629,31.7897],[35.2527,31.7697],[35.2532,31.7625],[35.2597,31.7569],[35.2628,31.7486],[35.2525,31.7381],[35.2492,31.7236],[35.2443,31.7194],[35.2424,31.7109],[35.238,31.7093],[35.2241,31.7192],[35.2194,31.7151],[35.2053,31.7232],[35.1794,31.7201],[35.1667,31.7321],[35.1544,31.7334],[35.149,31.7373],[35.2093,31.7471],[35.2194,31.7341],[35.2226,31.7346],[35.227,31.7444],[35.2245,31.7444],[35.2245,31.7572]]]},"properties":{"name":"East Jerusalem (annexed by Israel)","kind":"zone","style":"israeli-annexed","validFrom":"1967-06-28","validTo":"2026-12-31","note":"East Jerusalem and surrounding villages (~70 km2, including the former no-man's land and Mount Scopus) placed under Israeli law and administration on 28 June 1967; annexation not recognised internationally.","source":"Natural Earth 1:10m admin-0 disputed areas (public domain)"}},{"type":"Feature","geometry":{"type":"Polygon","coordinates":[[[35.8099,33.36],[35.7638,33.3344],[35.8021,33.3125],[35.7686,33.2727],[35.8036,33.2485],[35.8077,33.2017],[35.8302,33.19],[35.8334,33.1611],[35.8115,33.1268],[35.8115,33.1119],[35.8489,33.0987],[35.8458,33.0854],[35.859,32.9902],[35.8881,32.9449],[35.8497,32.8958],[35.8381,32.866],[35.8419,32.8536],[35.8342,32.8279],[35.7576,32.7443],[35.6852,32.7112],[35.636,32.6791],[35.6123,32.6815],[35.595,32.7074],[35.6344,32.7522],[35.6354,32.7694],[35.6414,32.7721],[35.6354,32.7937],[35.6414,32.8648],[35.6382,32.8747],[35.6023,32.9086],[35.6148,32.9212],[35.6198,32.9839],[35.5877,33.0179],[35.6213,33.0503],[35.6344,33.052],[35.6369,33.0772],[35.6722,33.15],[35.6613,33.2129],[35.6602,33.236],[35.6662,33.2469],[35.6345,33.2487],[35.608,33.2392],[35.6046,33.2444],[35.6181,33.2561],[35.6201,33.2695],[35.6521,33.2767],[35.6985,33.3227],[35.7437,33.3312],[35.7694,33.3426],[35.8057,33.3913],[35.8211,33.4067],[35.8099,33.36]]]},"properties":{"name":"Golan Heights (annexed by Israel)","kind":"zone","style":"israeli-annexed","validFrom":"1981-12-14","validTo":"2026-12-31","note":"Golan Heights captured from Syria in June 1967 and placed under Israeli law by the Golan Heights Law of 14 Dec 1981 (not recognised internationally; the UN considers it occupied Syrian territory). Includes the Shebaa Farms, claimed by Lebanon.","source":"Natural Earth 1:10m admin-0 disputed areas (public domain)"}},{"type":"Feature","geometry":{"type":"Polygon","coordinates":[[[34.556,31.5398],[34.3673,31.3928],[34.3458,31.3577],[34.3538,31.3064],[34.3509,31.2893],[34.3159,31.2569],[34.2484,31.2114],[34.2246,31.2757],[34.2003,31.3143],[34.2814,31.3767],[34.3016,31.4077],[34.3484,31.4376],[34.3682,31.4682],[34.4434,31.5346],[34.4812,31.5831],[34.556,31.5398]]]},"properties":{"name":"Gaza Strip (Israeli-occupied)","kind":"zone","style":"israeli-occupied","validFrom":"1967-06-10","validTo":"1994-05-17","note":"Gaza Strip under Israeli military occupation from June 1967.","source":"Natural Earth 1:10m admin-0 (public domain)"}},{"type":"Feature","geometry":{"type":"Polygon","coordinates":[[[35.1065,33.095],[35.1004,33.0957],[35.0996,33.1013],[35.1058,33.1125],[35.1255,33.1325],[35.1476,33.1403],[35.1678,33.1702],[35.1629,33.1757],[35.1721,33.1748],[35.1747,33.1702],[35.1769,33.1743],[35.22,33.17],[35.3,33.17],[35.37,33.18],[35.42,33.2],[35.45,33.24],[35.48,33.3],[35.5,33.35],[35.55,33.38],[35.6,33.42],[35.65,33.45],[35.72,33.45],[35.8,33.42],[35.839,33.4157],[35.8211,33.4067],[35.8057,33.3913],[35.7858,33.3579],[35.7694,33.3426],[35.7437,33.3312],[35.6985,33.3227],[35.6605,33.2893],[35.6521,33.2767],[35.6311,33.2746],[35.6201,33.2695],[35.6181,33.2561],[35.6046,33.2444],[35.6039,33.2401],[35.585,33.2522],[35.5612,33.2821],[35.5495,33.281],[35.5278,33.2443],[35.52,33.2222],[35.5177,33.1729],[35.5123,33.1474],[35.4851,33.1026],[35.4801,33.0874],[35.4494,33.0852],[35.4016,33.0679],[35.3452,33.0556],[35.3319,33.0572],[35.3058,33.0894],[35.2837,33.1012],[35.2715,33.1012],[35.2345,33.0909],[35.2072,33.0948],[35.1853,33.084],[35.1052,33.0906],[35.1065,33.095]]]},"properties":{"name":"South Lebanon \"security zone\" (Israeli-occupied)","kind":"zone","style":"israeli-occupied","validFrom":"1985-06-10","validTo":"2000-05-24","note":"Strip of south Lebanon (~850-1,100 km2) held by Israel and the South Lebanon Army from the completion of the 1985 withdrawal (10 June 1985) until the Israeli withdrawal of 24 May 2000. Northern edge hand-digitised (Beit Yahoun - Beaufort - Marjayoun - Hasbaya); the SLA-held Jezzine salient is not drawn. Simplified.","approximate":true,"source":"hand-digitised from UN Secretary-General reports on UNIFIL and reference maps of the security belt; Lebanese border edges from Natural Earth"}},{"type":"Feature","geometry":{"type":"MultiPolygon","coordinates":[[[[35.2092,33.2546],[35.1883,33.28],[35.2097,33.2934],[35.2248,33.312],[35.2369,33.34],[35.26,33.34],[35.48,33.37],[35.5143,33.3586],[35.5,33.35],[35.48,33.3],[35.45,33.24],[35.42,33.2],[35.37,33.18],[35.3,33.17],[35.22,33.17],[35.1769,33.1743],[35.2048,33.2248],[35.2092,33.2546]]],[[[35.6,33.44],[35.6462,33.4477],[35.6,33.42],[35.5654,33.3923],[35.6,33.44]]]]},"properties":{"name":"UNIFIL area of operations","kind":"zone","style":"un-buffer","validFrom":"1985-06-10","validTo":"2000-05-24","note":"UN Interim Force in Lebanon (est. UNSC 425/426, March 1978) area of operations between the Israeli \"security zone\" and the Litani, 1985-2000; simplified (the actual area was a patchwork and excluded the Tyre pocket).","approximate":true,"source":"hand-digitised from UN cartographic UNIFIL deployment maps; Litani and security-zone edges approximate"}},{"type":"Feature","geometry":{"type":"Polygon","coordinates":[[[35.7842,32.7779],[35.8342,32.8279],[35.8419,32.8536],[35.8381,32.866],[35.8497,32.8958],[35.8669,32.9208],[35.874,32.9223],[35.8881,32.9449],[35.8646,32.9777],[35.859,32.9902],[35.8458,33.0854],[35.8489,33.0987],[35.8115,33.1119],[35.8115,33.1268],[35.8334,33.1611],[35.8302,33.19],[35.8077,33.2017],[35.8036,33.2485],[35.7756,33.2649],[35.7686,33.2727],[35.8021,33.3125],[35.7638,33.3344],[35.7858,33.3429],[35.8099,33.36],[35.817,33.3952],[35.8224,33.4014],[35.8211,33.4067],[35.8701,33.4312],[35.8731,33.4163],[35.87,33.4069],[35.845,33.389],[35.8349,33.3781],[35.8302,33.3648],[35.8302,33.3515],[35.8434,33.3219],[35.845,33.3039],[35.8404,33.2954],[35.8193,33.2844],[35.8202,33.2806],[35.8458,33.279],[35.8513,33.2758],[35.8662,33.226],[35.8888,33.1986],[35.8888,33.1946],[35.8825,33.1892],[35.8849,33.1791],[35.8903,33.1768],[35.9004,33.1798],[35.906,33.1768],[35.9113,33.1658],[35.9106,33.1354],[35.8919,33.1244],[35.8973,33.1166],[35.9027,33.1166],[35.9027,33.1096],[35.8684,33.1073],[35.8646,33.0815],[35.8771,32.9926],[35.8981,32.9855],[35.9238,32.9677],[35.9122,32.9473],[35.8903,32.9286],[35.8607,32.8802],[35.8466,32.8365],[35.8482,32.8303],[35.8427,32.8217],[35.8154,32.7865],[35.7911,32.7741],[35.7697,32.7481],[35.7576,32.7443],[35.7842,32.7779]]]},"properties":{"name":"UNDOF area of separation","kind":"zone","style":"un-buffer","validFrom":"1974-05-31","validTo":"2026-12-31","note":"UN Disengagement Observer Force area of separation between the Israeli-held Golan and Syria under the 31 May 1974 disengagement agreement (Alpha and Bravo lines).","source":"Natural Earth 1:10m admin-0 disputed areas (public domain)"}},{"type":"Feature","geometry":{"type":"Polygon","coordinates":[[[35.0996,33.1013],[35.1058,33.1125],[35.1255,33.1325],[35.1476,33.1403],[35.1678,33.1702],[35.1618,33.1769],[35.1711,33.1766],[35.1747,33.1702],[35.2048,33.2248],[35.2092,33.2546],[35.1883,33.28],[35.2097,33.2934],[35.2248,33.312],[35.2437,33.3557],[35.2505,33.4097],[35.2751,33.445],[35.271,33.4575],[35.3491,33.5139],[35.4006,33.6431],[35.3944,33.65],[35.4099,33.6613],[35.4216,33.7023],[35.4385,33.7114],[35.4378,33.7234],[35.4773,33.8039],[35.4813,33.8237],[35.4832,33.8725],[35.4705,33.9021],[35.4866,33.913],[35.5173,33.9025],[35.572,33.91],[35.5931,33.9448],[35.5857,33.9509],[35.6135,33.9932],[35.6409,33.9994],[35.6404,34.0085],[35.6272,34.0198],[35.627,34.0443],[35.6433,34.0881],[35.6477,34.1191],[35.6304,34.1528],[35.6272,34.2011],[35.6477,34.2222],[35.653,34.2849],[35.6652,34.3113],[35.6887,34.3283],[35.7058,34.3166],[35.7507,34.3898],[35.8062,34.415],[35.8236,34.4345],[35.8054,34.4649],[35.824,34.4608],[35.9033,34.478],[35.9832,34.5386],[35.9888,34.5527],[35.9896,34.5997],[35.9806,34.6385],[35.9699,34.6498],[35.9914,34.6482],[36.0379,34.6284],[36.1559,34.6269],[36.1783,34.6353],[36.2012,34.6245],[36.2616,34.6272],[36.2807,34.6391],[36.2882,34.6756],[36.3089,34.6875],[36.3238,34.6795],[36.3474,34.6441],[36.3675,34.6292],[36.3912,34.6225],[36.4402,34.6294],[36.4363,34.5978],[36.4291,34.5932],[36.4037,34.6038],[36.3889,34.5962],[36.3835,34.5538],[36.3199,34.5141],[36.3354,34.4935],[36.3923,34.5001],[36.4335,34.4943],[36.4498,34.4645],[36.4802,34.4491],[36.4947,34.4343],[36.5251,34.4229],[36.5298,34.4031],[36.5168,34.3699],[36.5186,34.3536],[36.5558,34.3111],[36.5768,34.3077],[36.582,34.2999],[36.5799,34.2869],[36.5628,34.2629],[36.574,34.2297],[36.6041,34.1991],[36.5759,34.1733],[36.5527,34.141],[36.4884,34.0886],[36.4752,34.0535],[36.4451,34.0461],[36.4122,34.0536],[36.3911,34.0447],[36.3578,34.0096],[36.318,33.9805],[36.2886,33.9465],[36.2672,33.9104],[36.2753,33.8972],[36.3111,33.872],[36.3504,33.8664],[36.3676,33.8575],[36.3696,33.837],[36.3575,33.8238],[36.3383,33.8212],[36.2318,33.8525],[36.1866,33.8302],[36.1657,33.8298],[36.1383,33.8506],[36.1024,33.8323],[36.0504,33.8164],[36.0271,33.7843],[35.994,33.7607],[35.9742,33.7322],[35.9484,33.7092],[35.9472,33.6731],[35.9254,33.6617],[35.9216,33.6403],[36.0297,33.5976],[36.0385,33.5863],[36.0352,33.5678],[35.9993,33.5413],[35.9332,33.5278],[35.9219,33.5146],[35.9354,33.4943],[35.9195,33.4624],[35.8211,33.4067],[35.7694,33.3426],[35.7437,33.3312],[35.6985,33.3227],[35.6521,33.2767],[35.6201,33.2695],[35.6181,33.2561],[35.6039,33.2401],[35.585,33.2522],[35.5612,33.2821],[35.5495,33.281],[35.52,33.2222],[35.5123,33.1474],[35.4801,33.0874],[35.4494,33.0852],[35.3452,33.0556],[35.3319,33.0572],[35.3058,33.0894],[35.2837,33.1012],[35.2345,33.0909],[35.2072,33.0948],[35.1853,33.084],[35.1052,33.089],[35.0996,33.1013]]]},"properties":{"name":"Lebanon","kind":"zone","style":"other-state","validFrom":"1967-06-10","validTo":"2026-12-31","source":"Natural Earth 1:10m admin-0 (public domain)"}},{"type":"Feature","geometry":{"type":"Polygon","coordinates":[[[35.8342,32.8279],[35.8497,32.8958],[35.8881,32.9449],[35.859,32.9902],[35.8489,33.0987],[35.8115,33.1119],[35.8302,33.19],[35.8077,33.2017],[35.8036,33.2485],[35.7686,33.2727],[35.8021,33.3125],[35.7638,33.3344],[35.8099,33.36],[35.8211,33.4067],[35.9195,33.4624],[35.9332,33.5278],[35.9993,33.5413],[36.0352,33.5678],[36.0297,33.5976],[35.9216,33.6403],[35.9254,33.6617],[35.9472,33.6731],[35.9484,33.7092],[36.0504,33.8164],[36.1383,33.8506],[36.1657,33.8298],[36.2318,33.8525],[36.3575,33.8238],[36.3676,33.8575],[36.3111,33.872],[36.2689,33.9068],[36.2886,33.9465],[36.3911,34.0447],[36.4752,34.0535],[36.4884,34.0886],[36.6041,34.1991],[36.5628,34.2629],[36.582,34.2999],[36.5186,34.3536],[36.5251,34.4229],[36.4498,34.4645],[36.4335,34.4943],[36.3354,34.4935],[36.3199,34.5141],[36.3835,34.5538],[36.3889,34.5962],[36.4363,34.5978],[36.4402,34.6294],[36.3675,34.6292],[36.3089,34.6875],[36.2616,34.6272],[36.0379,34.6284],[35.9699,34.6498],[35.9312,34.741],[35.929,34.7907],[35.8669,34.9242],[35.8814,34.945],[35.8735,34.9788],[35.9006,35.0219],[35.8879,35.1092],[35.9624,35.1979],[35.9153,35.2879],[35.929,35.3215],[35.919,35.4177],[35.8184,35.5089],[35.7705,35.5042],[35.7781,35.5412],[35.7371,35.5617],[35.7433,35.5821],[35.7234,35.5821],[35.7785,35.6127],[35.7712,35.6678],[35.8001,35.6815],[35.8403,35.7475],[35.8359,35.79],[35.7986,35.8497],[35.8709,35.8518],[35.9113,35.9178],[35.9803,35.9269],[36.0039,35.8692],[36.1576,35.8226],[36.1749,35.9227],[36.1969,35.9517],[36.269,35.9587],[36.2775,35.9942],[36.2974,36.0007],[36.358,35.994],[36.3586,36.167],[36.3758,36.2045],[36.3614,36.2182],[36.373,36.2276],[36.4507,36.1999],[36.4802,36.2255],[36.6643,36.229],[36.6691,36.2599],[36.6486,36.3059],[36.5776,36.3329],[36.5934,36.3735],[36.5527,36.4082],[36.5312,36.479],[36.5653,36.5325],[36.5693,36.6201],[36.6033,36.747],[36.6433,36.8036],[36.6399,36.8281],[36.9647,36.7538],[37.0184,36.7066],[37.0145,36.6423],[37.0531,36.6199],[37.1044,36.651],[37.2419,36.6586],[37.4461,36.6342],[37.6541,36.7321],[37.8197,36.7605],[38.0079,36.8258],[38.123,36.8846],[38.2243,36.9084],[38.48,36.8557],[38.5294,36.8337],[38.6641,36.7195],[38.725,36.6939],[39.0322,36.7012],[39.1859,36.6595],[39.2396,36.6613],[39.7653,36.7422],[40.1901,36.8844],[40.4139,37.004],[40.5257,37.0259],[40.709,37.1005],[40.8964,37.1227],[41.2013,37.065],[41.4798,37.0756],[42.0092,37.1756],[42.2112,37.3249],[42.2232,37.2881],[42.2672,37.2745],[42.292,37.2851],[42.3467,37.2398],[42.3353,37.1712],[42.3546,37.1524],[42.3772,37.0622],[41.8438,36.6179],[41.7899,36.5893],[41.3854,36.5164],[41.277,36.3548],[41.2367,36.0603],[41.3545,35.8256],[41.3635,35.6552],[41.3422,35.5937],[41.2611,35.4942],[41.2431,35.3665],[41.2013,35.243],[41.1915,35.1821],[41.2042,34.7931],[40.9653,34.4019],[40.6905,34.3315],[38.7745,33.3717],[36.8194,32.3168],[36.6896,32.3197],[36.6535,32.3429],[36.3879,32.3793],[36.1774,32.5273],[36.1559,32.5152],[36.0663,32.5173],[36.006,32.6079],[36.0036,32.6551],[35.9554,32.6574],[35.9375,32.674],[35.9442,32.6908],[35.7576,32.7443],[35.8342,32.8279]]]},"properties":{"name":"Syria","kind":"zone","style":"other-state","validFrom":"1967-06-10","validTo":"2026-12-31","note":"Syria excluding the Israeli-held Golan Heights.","source":"Natural Earth 1:10m admin-0 (public domain)"}},{"type":"Feature","geometry":{"type":"Polygon","coordinates":[[[35.636,32.6791],[35.7697,32.7481],[35.8957,32.7133],[35.9442,32.6908],[35.9375,32.674],[35.9554,32.6574],[36.0036,32.6551],[36.006,32.6079],[36.0663,32.5173],[36.1559,32.5152],[36.1774,32.5273],[36.3879,32.3793],[36.6535,32.3429],[36.6896,32.3197],[36.7286,32.3278],[36.8066,32.313],[38.7745,33.3717],[39.0572,32.4966],[38.9782,32.475],[39.0288,32.3283],[39.0463,32.3085],[39.2358,32.3529],[39.2563,32.3427],[39.292,32.2445],[39.1464,32.1181],[38.9634,31.9943],[36.9595,31.491],[37.48,31.0073],[37.9814,30.4988],[37.6476,30.3309],[37.4917,30.0112],[37.4702,29.9946],[36.7287,29.8535],[36.4771,29.4946],[36.0695,29.2],[36.0164,29.19],[34.9494,29.3517],[34.9624,29.3598],[34.969,29.4508],[34.9978,29.518],[34.9968,29.5339],[34.9556,29.559],[34.9599,29.5862],[35.049,29.8423],[35.0541,29.9234],[35.0863,30.034],[35.1453,30.1234],[35.1252,30.2447],[35.1621,30.3614],[35.14,30.4302],[35.2053,30.6171],[35.2638,30.7198],[35.2795,30.7802],[35.3166,30.8228],[35.3222,30.89],[35.3853,30.9633],[35.3916,31.0239],[35.4385,31.1037],[35.4362,31.1595],[35.3957,31.2577],[35.4529,31.4008],[35.4801,31.6411],[35.5276,31.7351],[35.5594,31.7653],[35.5247,31.9192],[35.5459,31.9446],[35.5228,32.0578],[35.5451,32.0868],[35.5352,32.1108],[35.5594,32.1551],[35.5725,32.2376],[35.5594,32.2376],[35.5725,32.2519],[35.552,32.3748],[35.5656,32.3679],[35.5451,32.4096],[35.5725,32.4567],[35.5613,32.4771],[35.58,32.4915],[35.552,32.5188],[35.5656,32.5256],[35.5594,32.553],[35.58,32.5604],[35.5605,32.6409],[35.6118,32.6819],[35.636,32.6791]]]},"properties":{"name":"Jordan","kind":"zone","style":"other-state","validFrom":"1967-06-10","validTo":"2026-12-31","source":"Natural Earth 1:10m admin-0 (public domain)"}},{"type":"Feature","geometry":{"type":"MultiPolygon","coordinates":[[[[34.4804,30.6512],[34.5044,30.5303],[34.5362,30.4822],[34.5269,30.4096],[34.5995,30.3445],[34.7332,30.0126],[34.7414,29.9402],[34.8244,29.7417],[34.8553,29.5457],[34.8867,29.4901],[34.7366,29.3113],[34.7453,29.2913],[34.729,29.1989],[34.695,29.1645],[34.6746,29.1065],[34.6857,28.9887],[34.6403,28.9488],[34.6471,28.8629],[34.6205,28.8459],[34.6335,28.7707],[34.6245,28.736],[34.5106,28.538],[34.5236,28.5073],[34.469,28.4554],[34.4102,28.32],[34.4129,28.2331],[34.4553,28.1749],[34.4268,28.0815],[34.444,28.0535],[34.4349,27.9756],[34.4007,27.9687],[34.3709,27.9237],[34.3313,27.9141],[34.321,27.8613],[34.2795,27.8583],[34.2591,27.8017],[34.2141,27.7915],[34.2212,27.7698],[34.2573,27.7695],[34.2573,27.7286],[34.1898,27.7868],[34.0545,27.8145],[33.9876,27.8867],[33.904,27.9418],[33.8794,27.9346],[33.8656,27.9613],[33.7634,28.024],[33.7639,28.049],[33.716,28.0753],[33.6746,28.1605],[33.6348,28.1813],[33.6182,28.2333],[33.5647,28.2971],[33.4339,28.3664],[33.3692,28.4479],[33.2562,28.5441],[33.2698,28.5441],[33.2629,28.5771],[33.2376,28.5661],[33.2562,28.5516],[33.2287,28.5694],[33.1948,28.6751],[33.2283,28.7639],[33.1746,28.837],[33.1659,28.9761],[33.1779,28.9896],[33.145,29.0317],[33.0786,29.0649],[33.0612,29.1014],[32.9579,29.2021],[32.8856,29.2431],[32.8683,29.2974],[32.8394,29.3162],[32.8174,29.3598],[32.8172,29.414],[32.7415,29.456],[32.7347,29.4838],[32.7285,29.456],[32.715,29.456],[32.7241,29.5395],[32.7124,29.5805],[32.6808,29.5999],[32.6907,29.7336],[32.6484,29.7946],[32.6045,29.8242],[32.6255,29.8463],[32.6253,29.8743],[32.5715,29.9289],[32.5855,29.9525],[32.5616,29.9764],[32.5778,29.9835],[32.5778,30.0114],[32.5575,29.9765],[32.5715,29.9426],[32.554,29.9621],[32.5134,29.9616],[32.4769,29.9322],[32.4729,29.882],[32.5095,29.8668],[32.3928,29.7344],[32.3639,29.6882],[32.3377,29.5925],[32.3877,29.5256],[32.4513,29.4873],[32.5812,29.3691],[32.6323,29.2431],[32.6589,29.1108],[32.6597,29.0891],[32.6247,29.0482],[32.6255,28.9727],[32.6734,28.9215],[32.6808,28.8806],[32.7492,28.8048],[32.8069,28.7781],[32.8689,28.5789],[33.0029,28.4895],[33.0432,28.4008],[33.1067,28.3471],[33.1265,28.2875],[33.2122,28.1899],[33.242,28.1749],[33.2494,28.1429],[33.3381,28.0854],[33.3436,28.0506],[33.4417,28.0165],[33.5125,27.9591],[33.5544,27.8965],[33.5921,27.7912],[33.4889,27.8459],[33.4735,27.8232],[33.5227,27.7519],[33.5579,27.7599],[33.5368,27.7081],[33.575,27.6814],[33.5921,27.6466],[33.5579,27.6814],[33.5579,27.6597],[33.5442,27.6792],[33.5265,27.6776],[33.4963,27.6466],[33.5647,27.5715],[33.5579,27.5368],[33.633,27.4958],[33.6917,27.3419],[33.8384,27.2426],[33.8384,27.1942],[33.8247,27.1805],[33.8368,27.1208],[33.9014,27.0587],[33.9009,27.0142],[33.9517,26.931],[33.9961,26.8966],[33.9961,26.8379],[33.9596,26.8498],[33.9483,26.831],[33.9519,26.7434],[33.9321,26.6826],[33.9414,26.6535],[34.014,26.6116],[34.3387,26.0018],[34.5466,25.725],[34.6335,25.5694],[34.6819,25.4287],[34.7433,25.3513],[34.8069,25.2116],[34.9391,25.0034],[34.9537,24.9441],[34.9898,24.905],[35.0022,24.8156],[35.0635,24.7641],[35.1095,24.6438],[35.1603,24.5746],[35.1446,24.5002],[35.1857,24.4857],[35.2355,24.4001],[35.3919,24.2828],[35.4286,24.186],[35.4938,24.1089],[35.5105,24.1112],[35.4938,24.139],[35.5039,24.1405],[35.5884,24.0758],[35.6053,24.0188],[35.7386,23.9833],[35.7925,23.9023],[35.7858,23.893],[35.7504,23.9324],[35.6845,23.9109],[35.5985,23.9294],[35.5139,23.9771],[35.4839,23.9178],[35.4907,23.87],[35.4748,23.7979],[35.4832,23.7725],[35.5101,23.7564],[35.4894,23.497],[35.5475,23.394],[35.5747,23.2126],[35.6211,23.1393],[35.6546,23.0738],[35.6678,22.9826],[35.6953,22.9321],[35.7637,22.8704],[35.7234,22.9319],[35.7557,22.9223],[35.7849,22.8332],[35.886,22.7357],[35.9695,22.698],[36.1206,22.6757],[36.2261,22.6354],[36.2905,22.5682],[36.3134,22.4916],[36.4281,22.426],[36.4398,22.3564],[36.5628,22.2967],[36.7137,22.1691],[36.7476,22.161],[36.7568,22.1769],[36.7822,22.1645],[36.8182,22.1088],[36.8954,22.0661],[36.8984,22.0175],[36.8836,21.9957],[31.4355,21.9954],[31.4918,22.1732],[31.4609,22.2155],[31.4233,22.227],[31.3595,22.1881],[31.2484,21.9944],[24.9812,21.9954],[24.9812,29.1814],[24.9566,29.2927],[24.8638,29.5029],[24.8707,29.6383],[24.8049,29.7548],[24.7982,29.7964],[24.8116,29.8909],[24.6973,30.1226],[24.6887,30.1828],[24.7724,30.331],[24.9077,30.4987],[24.9949,30.7851],[24.8826,31.0391],[24.8595,31.146],[24.849,31.3486],[24.8613,31.3804],[25.0237,31.4944],[25.0884,31.6135],[25.1509,31.6565],[25.1618,31.5836],[25.1909,31.5315],[25.4019,31.5032],[25.8241,31.6149],[25.9668,31.6166],[26.3622,31.5219],[26.7532,31.4775],[26.8657,31.4368],[26.9655,31.4497],[27.0544,31.4086],[27.2262,31.3677],[27.2461,31.3813],[27.3206,31.381],[27.3423,31.3682],[27.3936,31.2547],[27.4463,31.2232],[27.5877,31.1931],[27.6099,31.2032],[27.6603,31.1802],[27.8529,31.2403],[27.8971,31.1144],[27.9269,31.099],[28.1546,31.0933],[28.2039,31.0705],[28.3184,31.0598],[28.4243,31.0834],[28.4785,31.0518],[28.5276,31.0501],[28.812,30.9568],[28.8357,30.9108],[29.0281,30.8271],[29.2189,30.838],[29.5033,30.9567],[29.766,31.1216],[29.7815,31.1479],[29.8384,31.1541],[29.8846,31.1895],[29.8635,31.1964],[29.877,31.2136],[29.8982,31.2032],[30.0696,31.3335],[30.0667,31.3049],[30.0949,31.2856],[30.1726,31.2714],[30.1401,31.2373],[30.1652,31.2168],[30.2068,31.2379],[30.2017,31.2265],[30.2205,31.2202],[30.2614,31.2441],[30.2688,31.2653],[30.2887,31.2379],[30.303,31.2714],[30.2876,31.2782],[30.2409,31.2653],[30.2546,31.2783],[30.1795,31.2783],[30.2517,31.3034],[30.3128,31.3506],[30.3484,31.4213],[30.3439,31.498],[30.3646,31.4601],[30.3986,31.4433],[30.3706,31.4616],[30.3622,31.5087],[30.4564,31.4627],[30.5358,31.4639],[30.9739,31.5867],[30.6281,31.4343],[30.5579,31.4222],[30.5427,31.4024],[30.6267,31.3887],[30.6751,31.4216],[30.7344,31.3881],[30.7562,31.423],[30.7985,31.4465],[30.8924,31.4191],[30.9397,31.4433],[30.9397,31.457],[30.9807,31.4365],[31.0291,31.5185],[31.0713,31.5173],[31.1192,31.4931],[31.1292,31.5045],[31.1111,31.5123],[31.1304,31.517],[31.1111,31.5397],[31.0232,31.583],[30.978,31.5843],[31.0974,31.6079],[31.221,31.5799],[31.5568,31.4433],[31.7483,31.4816],[31.8744,31.5356],[31.9129,31.5349],[31.9448,31.5209],[32.0249,31.4001],[32.1996,31.2951],[31.995,31.395],[31.9683,31.4365],[31.9935,31.4378],[31.918,31.524],[31.8895,31.5321],[31.8789,31.5185],[31.8652,31.5253],[31.8652,31.5123],[31.8509,31.5185],[31.8447,31.498],[31.8652,31.498],[31.8789,31.4291],[31.8416,31.4645],[31.8242,31.4433],[31.8584,31.4433],[31.8548,31.4232],[31.8789,31.4161],[31.8304,31.4086],[31.8447,31.395],[31.8279,31.3684],[31.8584,31.354],[31.7972,31.3595],[31.7959,31.311],[31.7669,31.2847],[31.8206,31.2783],[31.8342,31.2516],[31.8858,31.2236],[31.9063,31.2516],[31.9063,31.2236],[31.8926,31.2168],[31.9063,31.2168],[31.8994,31.2032],[31.9266,31.2106],[31.9264,31.187],[31.9866,31.2303],[32.0093,31.2106],[32.0371,31.2168],[32.0369,31.1503],[32.0161,31.1281],[32.0501,31.1418],[32.0701,31.1069],[32.044,31.0865],[32.0838,31.0844],[32.0838,31.066],[32.1065,31.0534],[32.1321,31.066],[32.1074,31.0728],[32.098,31.0933],[32.1463,31.0797],[32.1384,31.0933],[32.1594,31.0933],[32.1528,31.1066],[32.1663,31.1144],[32.1799,31.1069],[32.1838,31.1249],[32.2341,31.1049],[32.2835,31.1365],[32.2625,31.1696],[32.2898,31.1696],[32.2951,31.2134],[32.2705,31.2576],[32.283,31.2653],[32.2141,31.2783],[32.207,31.2951],[32.3314,31.2714],[32.3442,31.2419],[32.3899,31.2265],[32.5095,31.1069],[32.6016,31.061],[32.762,31.0812],[32.9273,31.1554],[32.8396,31.1012],[32.6665,31.0523],[32.715,31.0523],[32.7007,31.0387],[32.7695,31.0456],[32.8931,31.1008],[32.9172,31.0828],[32.9409,31.0933],[32.9136,31.1008],[32.9271,31.1118],[32.9688,31.0865],[32.9751,31.066],[32.9613,31.066],[33.0099,31.0563],[33.0234,31.0734],[33.0091,31.0865],[33.0575,31.1008],[33.0643,31.1349],[33.0303,31.1008],[32.9544,31.1069],[32.9846,31.1095],[33.0303,31.1622],[33.1094,31.1964],[33.1265,31.1895],[33.0986,31.1833],[33.1577,31.1179],[33.119,31.1069],[33.1447,31.0779],[33.1333,31.0456],[33.2214,31.0598],[33.1948,31.0734],[33.2625,31.1008],[33.304,31.0797],[33.3032,31.0998],[33.3176,31.1008],[33.2772,31.1069],[33.3865,31.1144],[33.3777,31.1326],[33.4064,31.1373],[33.4064,31.1554],[33.5921,31.1144],[33.8543,31.1635],[34.047,31.2292],[34.2003,31.3143],[34.4804,30.6512]],[[35.4292,22.9783],[35.2121,22.7863],[35.3458,22.9016],[35.6211,23.1393],[35.4292,22.9783]],[[34.7776,22.4998],[34.8282,22.6069],[34.862,22.6802],[34.7776,22.4998]],[[34.4228,22.2492],[34.1475,22.1919],[34.3211,22.2263],[34.6821,22.2979],[34.4228,22.2492]]],[[[34.7322,27.9189],[34.7047,27.9084],[34.6618,27.9302],[34.6818,27.9587],[34.7319,27.9571],[34.7322,27.9189]]],[[[34.6205,27.9204],[34.5181,27.9304],[34.4963,27.9551],[34.4895,27.996],[34.5173,28.0165],[34.5442,27.996],[34.5068,27.9862],[34.5119,27.9675],[34.5706,27.9741],[34.6205,27.9204]]],[[[34.0285,27.502],[34.0513,27.4486],[33.9564,27.5044],[33.9338,27.4947],[33.9136,27.5237],[33.9641,27.5341],[34.0285,27.502]]],[[[33.9756,26.79],[34.0036,26.7082],[33.9896,26.7203],[33.9551,26.79],[33.9756,26.79]]],[[[33.433,31.1721],[33.4759,31.1418],[33.2698,31.2168],[33.433,31.1721]]],[[[33.1047,31.2403],[33.2625,31.2236],[33.1026,31.2268],[32.9347,31.1479],[33.1047,31.2403]]],[[[32.9697,31.0866],[32.9831,31.0899],[32.9893,31.0734],[32.9697,31.0866]]]]},"properties":{"name":"Egypt","kind":"zone","style":"other-state","validFrom":"1982-04-25","validTo":"2026-12-31","note":"Egypt including Sinai, returned by Israel by 25 April 1982 (Taba in 1989).","source":"Natural Earth 1:10m admin-0 (public domain)"}},{"type":"Feature","geometry":{"type":"LineString","coordinates":[[35.561,32.3847],[35.4567,32.4076],[35.4328,32.4083],[35.4069,32.4148],[35.4014,32.44],[35.4018,32.471],[35.3929,32.4945],[35.3631,32.5101],[35.3334,32.5131],[35.2704,32.5105],[35.2522,32.5159],[35.2237,32.5359],[35.2086,32.5426],[35.1908,32.5417],[35.1768,32.5327],[35.1517,32.5079],[35.0907,32.4792],[35.0644,32.4631],[35.0447,32.4341],[35.0216,32.3446],[35.0007,32.3357],[34.9966,32.323],[34.9899,32.2785],[35.0024,32.2751],[35.0094,32.2676],[35.0111,32.2571],[35.0076,32.2444],[35.0003,32.232],[34.9614,32.2016],[34.9582,32.1865],[34.9869,32.124],[34.9842,32.0896],[35.0072,32.0208],[34.9968,32.0111],[34.9978,31.9788],[34.9867,31.9672],[35.0077,31.9449],[35.0038,31.9392],[35.0054,31.9338],[35.0164,31.9266],[35.0299,31.9244],[35.039,31.9086],[35.0343,31.8611],[35.0301,31.857],[34.9985,31.8538],[34.9774,31.8334],[35.0016,31.8285],[35.0129,31.8293],[35.0275,31.8327],[35.056,31.8533],[35.0763,31.8542],[35.0881,31.8481],[35.0976,31.8313],[35.1125,31.824],[35.1214,31.8248],[35.137,31.8143],[35.1739,31.8076],[35.1978,31.8099],[35.2238,31.8013],[35.2295,31.7713],[35.2283,31.7576],[35.2245,31.7572],[35.2239,31.746],[35.227,31.7444],[35.2226,31.7346],[35.2194,31.7341],[35.2093,31.7471],[35.1992,31.7471],[35.1257,31.7331],[35.1142,31.7177],[35.0592,31.6768],[34.9736,31.6304],[34.9553,31.6119],[34.9373,31.582],[34.9268,31.4944],[34.8817,31.4299],[34.8672,31.3964],[34.8788,31.3628],[34.9009,31.3485],[34.9274,31.3449],[34.9549,31.3486],[34.9803,31.3562],[35.0402,31.3632],[35.1649,31.3623],[35.2233,31.381],[35.3323,31.4588],[35.3901,31.4871],[35.4581,31.4919]]},"properties":{"name":"1949 armistice line (Green Line, Israel-West Bank)","kind":"line","style":"occupation","validFrom":"1967-06-10","validTo":"2026-12-31","note":"The 1949 Israel-Jordan armistice line around the West Bank, crossed by Israel in June 1967; runs west of annexed East Jerusalem.","source":"derived from Natural Earth 1:10m polygon adjacency (public domain)"}},{"type":"Feature","geometry":{"type":"LineString","coordinates":[[34.2484,31.2114],[34.3159,31.2569],[34.3509,31.2893],[34.3538,31.3064],[34.3455,31.3407],[34.3458,31.3577],[34.3673,31.3928],[34.4804,31.4856],[34.556,31.5398],[34.4812,31.5831]]},"properties":{"name":"1949 armistice line (Israel-Gaza Strip)","kind":"line","style":"occupation","validFrom":"1967-06-10","validTo":"2026-12-31","note":"The 1949 Israel-Egypt armistice line around the Gaza Strip, now the fenced perimeter.","source":"derived from Natural Earth 1:10m polygon adjacency (public domain)"}},{"type":"Feature","geometry":{"type":"LineString","coordinates":[[34.8867,29.4901],[34.8553,29.5457],[34.8244,29.7417],[34.7414,29.9402],[34.7332,30.0126],[34.5995,30.3445],[34.5269,30.4096],[34.5362,30.4822],[34.5044,30.5303],[34.4804,30.6512],[34.2484,31.2114]]},"properties":{"name":"Israel-Egypt border","kind":"line","style":"international","validFrom":"1982-04-25","validTo":"2026-12-31","note":"International boundary (1906 line) restored by the 1979 peace treaty when Israel completed its withdrawal from Sinai on 25 April 1982.","source":"derived from Natural Earth 1:10m polygon adjacency (public domain)"}},{"type":"Feature","geometry":{"type":"LineString","coordinates":[[34.2484,31.2114],[34.2246,31.2757],[34.2003,31.3143]]},"properties":{"name":"Gaza Strip-Egypt border","kind":"line","style":"international","validFrom":"1982-04-25","validTo":"2026-12-31","note":"Boundary between the Gaza Strip and Egypt (Rafah / \"Philadelphi\" corridor).","source":"derived from Natural Earth 1:10m polygon adjacency (public domain)"}},{"type":"Feature","geometry":{"type":"LineString","coordinates":[[35.1052,33.089],[35.1853,33.084],[35.2072,33.0948],[35.2345,33.0909],[35.2715,33.1012],[35.2837,33.1012],[35.3058,33.0894],[35.3319,33.0572],[35.3452,33.0556],[35.4016,33.0679],[35.4494,33.0852],[35.4801,33.0874],[35.4851,33.1026],[35.5123,33.1474],[35.5177,33.1729],[35.52,33.2222],[35.5278,33.2443],[35.5495,33.281],[35.5612,33.2821],[35.585,33.2522],[35.6039,33.2401]]},"properties":{"name":"Israel-Lebanon armistice line (1949)","kind":"line","style":"armistice","validFrom":"1949-03-23","validTo":"2000-06-06","note":"1949 Israel-Lebanon armistice line, following the 1923 Mandate boundary; superseded for UN purposes by the Blue Line in June 2000.","source":"derived from Natural Earth 1:10m polygon adjacency (public domain)"}},{"type":"Feature","geometry":{"type":"LineString","coordinates":[[35.8211,33.4067],[35.8224,33.4014],[35.817,33.3952],[35.8099,33.36],[35.7858,33.3429],[35.7638,33.3344],[35.8021,33.3125],[35.7686,33.2727],[35.7756,33.2649],[35.8036,33.2485],[35.8077,33.2017],[35.8302,33.19],[35.8334,33.1611],[35.8115,33.1268],[35.8115,33.1119],[35.8489,33.0987],[35.8458,33.0854],[35.859,32.9902],[35.8646,32.9777],[35.8881,32.9449],[35.874,32.9223],[35.8669,32.9208],[35.8497,32.8958],[35.8381,32.866],[35.8419,32.8536],[35.8342,32.8279],[35.7842,32.7779],[35.7576,32.7443]]},"properties":{"name":"Golan ceasefire line (1974 Alpha line)","kind":"line","style":"ceasefire","validFrom":"1974-05-31","validTo":"2026-12-31","note":"Israeli forward line under the 1974 Israel-Syria disengagement agreement; the UNDOF area of separation lies east of it.","source":"derived from Natural Earth 1:10m polygon adjacency (public domain)"}},{"type":"Feature","geometry":{"type":"MultiLineString","coordinates":[[[35.4581,31.4919],[35.4529,31.4008],[35.3957,31.2577],[35.4362,31.1595],[35.4385,31.1037],[35.3916,31.0239],[35.3853,30.9633],[35.3222,30.89],[35.3166,30.8228],[35.2795,30.7802],[35.2638,30.7198],[35.2053,30.6171],[35.14,30.4302],[35.1621,30.3614],[35.1252,30.2447],[35.1453,30.1234],[35.0863,30.034],[35.0541,29.9234],[35.049,29.8423],[34.9556,29.559]],[[35.6118,32.6819],[35.5605,32.6409],[35.58,32.5604],[35.5594,32.553],[35.5656,32.5256],[35.552,32.5256],[35.58,32.4977],[35.5594,32.4704],[35.5725,32.4567],[35.552,32.4362],[35.5591,32.414],[35.5451,32.4096],[35.561,32.3847]]]},"properties":{"name":"Israel-Jordan armistice line (1949)","kind":"line","style":"armistice","validFrom":"1949-04-03","validTo":"1994-10-25","note":"1949 armistice line between Israel and Jordan outside the West Bank (Yarmouk, Dead Sea, Arava), following the Mandate-era boundary.","source":"derived from Natural Earth 1:10m polygon adjacency (public domain)"}},{"type":"Feature","geometry":{"type":"LineString","coordinates":[[35.561,32.3847],[35.5656,32.3679],[35.552,32.3679],[35.5725,32.2519],[35.5594,32.2376],[35.5725,32.2376],[35.5594,32.1551],[35.5352,32.1108],[35.5451,32.0868],[35.5228,32.0578],[35.5459,31.9446],[35.5247,31.9192],[35.5594,31.7653],[35.5276,31.7351],[35.4801,31.6411],[35.4581,31.4919]]},"properties":{"name":"Jordan River line (West Bank-Jordan)","kind":"line","style":"ceasefire","validFrom":"1967-06-10","validTo":"2026-12-31","note":"1967 ceasefire line along the Jordan river and the Dead Sea between the Israeli-occupied West Bank and Jordan; Jordan relinquished its claim to the West Bank in 1988.","source":"derived from Natural Earth 1:10m polygon adjacency (public domain)"}}]}